SAUDISAT 1C (SO-50)     
1 27607U 02058C   24351.07072215  .00002845  00000+0  38506-3 0  9999
2 27607  64.5553  21.8634 0035176  22.1198 338.1415 14.80513682183444
SAUDISAT 2              
1 28371U 04025F   24351.19555203  .00000824  00000+0  19768-3 0  9994
2 28371  98.5067 327.4868 0024940 177.3107 182.8228 14.55995331 86023
SAUDISAT 3              
1 31118U 07012B   24351.12080055  .00000823  00000+0  14304-3 0  9997
2 31118  98.0788 292.7758 0015014 166.0778 194.0845 14.70718932947229
PISAT                   
1 41784U 16059B   24350.78761488  .00002189  00000+0  39539-3 0  9999
2 41784  97.8235   4.5447 0030589 153.3628 206.9156 14.67090071439276
FLYING LAPTOP           
1 42831U 17042G   24350.91253981  .00004893  00000+0  42801-3 0  9995
2 42831  97.3897 161.6486 0012115 177.4701 182.6585 14.97111975404303
SALSAT                  
1 46495U 20068K   24351.18666476  .00012790  00000+0  62643-3 0  9995
2 46495  97.8406 315.9318 0014580  53.8105 306.4474 15.18215258231871
